{
  "type": "FeatureCollection",
  "features": [
    {
      "type": "Feature",
      "properties": {
        "norad_id": 66993,
        "name": "2025-292A",
        "group": "last-30-days",
        "lat": -38.713656346761084,
        "lon": 67.57972464609796,
        "alt_km": 554.0764077493186,
        "timestamp": "2025-12-14T20:40:30.518296+00:00",
        "meta_object_name": "2025-292A",
        "meta_object_id": "2025-292A",
        "meta_epoch": "2025-12-14T06:28:57.986976",
        "meta_mean_motion": 15.04506912,
        "meta_eccentricity": 0.00138401,
        "meta_inclination": 97.6536,
        "meta_ra_of_asc_node": 60.8064,
        "meta_arg_of_pericenter": 267.3489,
        "meta_mean_anomaly": 92.6153,
        "meta_ephemeris_type": 0,
        "meta_classification_type": "U",
        "meta_norad_cat_id": 66993,
        "meta_element_set_no": 999,
        "meta_rev_at_epoch": 62,
        "meta_bstar": 0.00038262349,
        "meta_mean_motion_dot": 5.308e-05,
        "meta_mean_motion_ddot": 0,
        "tle_line1": "1 66993U 25292A   25348.27011559  .00005308  00000+0  38262-3 0  9994",
        "tle_line2": "2 66993  97.6536  60.8064 0013840 267.3489  92.6153 15.04506912   627"
      },
      "geometry": {
        "type": "Point",
        "coordinates": [
          67.57972464609796,
          -38.713656346761084
        ]
      }
    },
    {
      "type": "Feature",
      "properties": {
        "norad_id": 66994,
        "name": "2025-292B",
        "group": "last-30-days",
        "lat": -37.96260987526066,
        "lon": 67.41612509024293,
        "alt_km": 554.0342627383225,
        "timestamp": "2025-12-14T20:40:30.518306+00:00",
        "meta_object_name": "2025-292B",
        "meta_object_id": "2025-292B",
        "meta_epoch": "2025-12-14T16:03:24.384672",
        "meta_mean_motion": 15.04559991,
        "meta_eccentricity": 0.0013614,
        "meta_inclination": 97.6545,
        "meta_ra_of_asc_node": 61.2022,
        "meta_arg_of_pericenter": 266.3547,
        "meta_mean_anomaly": 93.6122,
        "meta_ephemeris_type": 0,
        "meta_classification_type": "U",
        "meta_norad_cat_id": 66994,
        "meta_element_set_no": 999,
        "meta_rev_at_epoch": 68,
        "meta_bstar": 0.00036288,
        "meta_mean_motion_dot": 5.037e-05,
        "meta_mean_motion_ddot": 0,
        "tle_line1": "1 66994U 25292B   25348.66903223  .00005037  00000+0  36288-3 0  9991",
        "tle_line2": "2 66994  97.6545  61.2022 0013614 266.3547  93.6122 15.04559991   688"
      },
      "geometry": {
        "type": "Point",
        "coordinates": [
          67.41612509024293,
          -37.96260987526066
        ]
      }
    },
    {
      "type": "Feature",
      "properties": {
        "norad_id": 66995,
        "name": "2025-292C",
        "group": "last-30-days",
        "lat": -37.89538627856281,
        "lon": 67.40110542245854,
        "alt_km": 553.8470326104843,
        "timestamp": "2025-12-14T20:40:30.518316+00:00",
        "meta_object_name": "2025-292C",
        "meta_object_id": "2025-292C",
        "meta_epoch": "2025-12-14T12:51:51.046272",
        "meta_mean_motion": 15.04563207,
        "meta_eccentricity": 0.0014034,
        "meta_inclination": 97.6537,
        "meta_ra_of_asc_node": 61.0707,
        "meta_arg_of_pericenter": 266.9819,
        "meta_mean_anomaly": 92.9801,
        "meta_ephemeris_type": 0,
        "meta_classification_type": "U",
        "meta_norad_cat_id": 66995,
        "meta_element_set_no": 999,
        "meta_rev_at_epoch": 66,
        "meta_bstar": 6.6895e-05,
        "meta_mean_motion_dot": 8.77e-06,
        "meta_mean_motion_ddot": 0,
        "tle_line1": "1 66995U 25292C   25348.53600748  .00000877  00000+0  66895-4 0  9999",
        "tle_line2": "2 66995  97.6537  61.0707 0014034 266.9819  92.9801 15.04563207   662"
      },
      "geometry": {
        "type": "Point",
        "coordinates": [
          67.40110542245854,
          -37.89538627856281
        ]
      }
    },
    {
      "type": "Feature",
      "properties": {
        "norad_id": 66996,
        "name": "2025-292D",
        "group": "last-30-days",
        "lat": -37.008888283488545,
        "lon": 67.21001278989685,
        "alt_km": 553.7137472821314,
        "timestamp": "2025-12-14T20:40:30.518330+00:00",
        "meta_object_name": "2025-292D",
        "meta_object_id": "2025-292D",
        "meta_epoch": "2025-12-14T12:51:37.507392",
        "meta_mean_motion": 15.04609236,
        "meta_eccentricity": 0.0013218,
        "meta_inclination": 97.6531,
        "meta_ra_of_asc_node": 61.0701,
        "meta_arg_of_pericenter": 269.9152,
        "meta_mean_anomaly": 90.056,
        "meta_ephemeris_type": 0,
        "meta_classification_type": "U",
        "meta_norad_cat_id": 66996,
        "meta_element_set_no": 999,
        "meta_rev_at_epoch": 66,
        "meta_bstar": 6.6608e-05,
        "meta_mean_motion_dot": 8.74e-06,
        "meta_mean_motion_ddot": 0,
        "tle_line1": "1 66996U 25292D   25348.53585078  .00000874  00000+0  66608-4 0  9997",
        "tle_line2": "2 66996  97.6531  61.0701 0013218 269.9152  90.0560 15.04609236   661"
      },
      "geometry": {
        "type": "Point",
        "coordinates": [
          67.21001278989685,
          -37.008888283488545
        ]
      }
    },
    {
      "type": "Feature",
      "properties": {
        "norad_id": 66997,
        "name": "2025-292E",
        "group": "last-30-days",
        "lat": -35.70775427314544,
        "lon": 66.9419090611788,
        "alt_km": 553.3433608931273,
        "timestamp": "2025-12-14T20:40:30.518340+00:00",
        "meta_object_name": "2025-292E",
        "meta_object_id": "2025-292E",
        "meta_epoch": "2025-12-14T14:27:03.560256",
        "meta_mean_motion": 15.04688384,
        "meta_eccentricity": 0.001358,
        "meta_inclination": 97.6547,
        "meta_ra_of_asc_node": 61.1375,
        "meta_arg_of_pericenter": 270.3465,
        "meta_mean_anomaly": 89.6205,
        "meta_ephemeris_type": 0,
        "meta_classification_type": "U",
        "meta_norad_cat_id": 66997,
        "meta_element_set_no": 999,
        "meta_rev_at_epoch": 66,
        "meta_bstar": 6.5331e-05,
        "meta_mean_motion_dot": 8.58e-06,
        "meta_mean_motion_ddot": 0,
        "tle_line1": "1 66997U 25292E   25348.60212454  .00000858  00000+0  65331-4 0  9995",
        "tle_line2": "2 66997  97.6547  61.1375 0013580 270.3465  89.6205 15.04688384   663"
      },
      "geometry": {
        "type": "Point",
        "coordinates": [
          66.9419090611788,
          -35.70775427314544
        ]
      }
    },
    {
      "type": "Feature",
      "properties": {
        "norad_id": 66998,
        "name": "2025-292F",
        "group": "last-30-days",
        "lat": -33.189612002213764,
        "lon": 66.44486391065638,
        "alt_km": 552.5879653277507,
        "timestamp": "2025-12-14T20:40:30.518350+00:00",
        "meta_object_name": "2025-292F",
        "meta_object_id": "2025-292F",
        "meta_epoch": "2025-12-14T14:26:25.158048",
        "meta_mean_motion": 15.04845918,
        "meta_eccentricity": 0.0014675,
        "meta_inclination": 97.657,
        "meta_ra_of_asc_node": 61.1387,
        "meta_arg_of_pericenter": 270.779,
        "meta_mean_anomaly": 89.1754,
        "meta_ephemeris_type": 0,
        "meta_classification_type": "U",
        "meta_norad_cat_id": 66998,
        "meta_element_set_no": 999,
        "meta_rev_at_epoch": 67,
        "meta_bstar": 6.4716e-05,
        "meta_mean_motion_dot": 8.54e-06,
        "meta_mean_motion_ddot": 0,
        "tle_line1": "1 66998U 25292F   25348.60168007  .00000854  00000+0  64716-4 0  9992",
        "tle_line2": "2 66998  97.6570  61.1387 0014675 270.7790  89.1754 15.04845918   677"
      },
      "geometry": {
        "type": "Point",
        "coordinates": [
          66.44486391065638,
          -33.189612002213764
        ]
      }
    },
    {
      "type": "Feature",
      "properties": {
        "norad_id": 66999,
        "name": "2025-292G",
        "group": "last-30-days",
        "lat": -32.144300483256494,
        "lon": 66.24702608435882,
        "alt_km": 552.3656879503878,
        "timestamp": "2025-12-14T20:40:30.518359+00:00",
        "meta_object_name": "2025-292G",
        "meta_object_id": "2025-292G",
        "meta_epoch": "2025-12-14T16:01:54.050880",
        "meta_mean_motion": 15.04914178,
        "meta_eccentricity": 0.0014012,
        "meta_inclination": 97.658,
        "meta_ra_of_asc_node": 61.2051,
        "meta_arg_of_pericenter": 273.0324,
        "meta_mean_anomaly": 86.9298,
        "meta_ephemeris_type": 0,
        "meta_classification_type": "U",
        "meta_norad_cat_id": 66999,
        "meta_element_set_no": 999,
        "meta_rev_at_epoch": 68,
        "meta_bstar": 0.00037236,
        "meta_mean_motion_dot": 5.221e-05,
        "meta_mean_motion_ddot": 0,
        "tle_line1": "1 66999U 25292G   25348.66798670  .00005221  00000+0  37236-3 0  9993",
        "tle_line2": "2 66999  97.6580  61.2051 0014012 273.0324  86.9298 15.04914178   686"
      },
      "geometry": {
        "type": "Point",
        "coordinates": [
          66.24702608435882,
          -32.144300483256494
        ]
      }
    }
  ]
}